OBJECT_NAME,OBJECT_ID,EPOCH,MEAN_MOTION,ECCENTRICITY,INCLINATION,RA_OF_ASC_NODE,ARG_OF_PERICENTER,MEAN_ANOMALY,EPHEMERIS_TYPE,CLASSIFICATION_TYPE,NORAD_CAT_ID,ELEMENT_SET_NO,REV_AT_EPOCH,BSTAR,MEAN_MOTION_DOT,MEAN_MOTION_DDOT
STARLINK-31206,2024-038F,2026-06-14T15:25:37.389504,15.27573906,.00014417,43.0066,134.4767,262.3227,97.7461,0,U,59028,999,13035,-.13422895E-4,-.632E-5,0
STARLINK-31224,2024-038G,2026-06-14T19:24:48.839040,15.27571435,.00011602,42.9942,198.3483,34.8412,325.2515,0,U,59029,999,12961,.15246546E-4,.158E-5,0
STARLINK-31186,2024-038H,2026-06-15T08:44:18.196800,15.27576421,.0001342,42.9994,195.6220,272.2661,87.8037,0,U,59030,999,12969,.76632E-5,-.51E-6,0
STARLINK-31211,2024-038J,2026-06-14T19:17:23.640576,15.27574526,.00009618,43.0002,198.3026,289.4785,70.5963,0,U,59031,999,12950,.1204698E-5,-.229E-5,0
STARLINK-30862,2024-038K,2026-06-14T18:51:44.398656,15.27574815,.00016652,43.0063,187.8292,265.5411,94.5250,0,U,59032,999,12962,-.4114592E-5,-.376E-5,0
STARLINK-31210,2024-038L,2026-06-15T08:28:21.016128,15.27579489,.0001315,43.0006,192.0944,276.8710,83.1992,0,U,59033,999,12979,.25298E-4,.434E-5,0
STARLINK-31231,2024-038M,2026-06-15T08:22:48.261216,15.27575864,.0000397,43.0034,192.0676,265.3271,94.7535,0,U,59034,999,12962,-.53834E-6,-.277E-5,0
STARLINK-31207,2024-038N,2026-06-14T08:44:54.197088,15.27574181,.00011422,42.9988,197.5743,260.9976,99.0747,0,U,59035,999,12964,-.622247E-6,-.279E-5,0
STARLINK-31217,2024-038P,2026-06-15T12:41:38.512608,15.27595394,.0002677,43.0131,96.6722,271.4359,88.6186,0,U,59036,999,13090,.10202E-3,.2547E-4,0
STARLINK-31208,2024-038Q,2026-06-15T09:15:44.993088,15.27580238,.0001138,42.9991,195.7576,266.1077,93.9644,0,U,59037,999,12975,-.7084E-4,-.2211E-4,0
STARLINK-31235,2024-038R,2026-06-15T08:13:32.943360,15.27577150,.0001861,43.0038,192.0168,275.5128,84.5511,0,U,59038,999,12973,.10811E-4,.35E-6,0
STARLINK-31220,2024-038S,2026-06-15T08:16:33.076992,15.27572901,.0001565,43.0016,195.4788,269.8102,90.2570,0,U,59039,999,12969,-.90705E-5,-.512E-5,0
STARLINK-31225,2024-038T,2026-06-14T19:19:56.292960,15.27566438,.00014457,43.0019,194.8294,267.5312,92.5374,0,U,59040,999,12954,.8425545E-5,-.3E-6,0
STARLINK-31240,2024-038U,2026-06-15T08:48:42.190272,15.27576846,.0001166,43.0005,192.2039,265.6985,94.3733,0,U,59041,999,12973,.26651E-4,.471E-5,0
STARLINK-31202,2024-038V,2026-06-15T08:38:54.461184,15.28751265,.0003525,43.0069,191.3060,139.2831,220.8285,0,U,59042,999,12980,.43471E-4,.974E-5,0
STARLINK-31234,2024-038W,2026-06-15T08:39:27.517824,15.27572898,.0001019,43.0045,192.1508,269.7313,90.3422,0,U,59043,999,12962,.5157E-5,-.12E-5,0
STARLINK-31153,2024-038X,2026-06-15T08:07:59.920608,15.27573968,.0002232,43.0069,191.9907,280.4798,79.5802,0,U,59044,999,12962,.81746E-6,-.24E-5,0
STARLINK-31241,2024-038Y,2026-06-15T08:45:00.150912,15.27576973,.0001136,42.9993,192.1782,274.2447,85.8274,0,U,59045,999,12979,.78215E-5,-.47E-6,0
STARLINK-31205,2024-038Z,2026-06-15T08:33:54.414720,15.27572708,.0001387,43.0047,192.1188,267.8738,92.1955,0,U,59046,999,12973,-.107E-4,-.557E-5,0
STARLINK-31265,2024-041A,2026-06-14T14:33:55.891296,15.27581802,.0001617,43.0088,123.3754,265.1346,94.9322,0,U,59074,999,12909,.2647E-4,.466E-5,0
STARLINK-31276,2024-041B,2026-06-15T03:55:05.405664,15.27605611,.00016509,43.0027,119.8140,278.9561,81.1104,0,U,59075,999,12923,.6211494E-5,-.91E-6,0
STARLINK-31259,2024-041C,2026-06-15T04:00:38.742048,15.27575947,.00008978,43.0026,119.8486,250.0918,109.9837,0,U,59076,999,12813,-.12948457E-4,-.618E-5,0
STARLINK-31281,2024-041D,2026-06-15T04:06:11.963520,15.27573156,.00004735,43.0032,119.8722,291.5592,68.5209,0,U,59077,999,12923,.21405552E-4,.327E-5,0
STARLINK-31274,2024-041E,2026-06-14T14:41:20.795136,15.27573278,.0001719,43.0047,123.4111,268.7807,91.2848,0,U,59078,999,12909,-.54754E-6,-.277E-5,0
STARLINK-31257,2024-041F,2026-06-13T14:44:54.693024,15.27590519,.0003546,43.0033,128.8316,268.6554,91.3892,0,U,59079,999,12894,.90063E-4,.2217E-4,0
STARLINK-31292,2024-041H,2026-06-15T04:11:44.827296,15.27572466,.00006275,43.0020,119.9009,274.9957,85.0823,0,U,59081,999,12917,.51308889E-4,.115E-4,0
STARLINK-31286,2024-041J,2026-06-13T14:37:34.879872,15.27551547,.0001416,43.0078,128.7985,275.2005,84.8685,0,U,59082,999,12902,-.11988E-3,-.3557E-4,0
STARLINK-31252,2024-041K,2026-06-15T08:50:56.095584,15.27580293,.0001456,43.0026,35.8784,267.8254,92.2431,0,U,59083,999,13021,.26578E-4,.469E-5,0
STARLINK-31261,2024-041L,2026-06-15T03:23:51.775008,15.27578389,.00020761,43.0145,120.5112,282.9295,77.1325,0,U,59084,999,12922,.34977313E-4,.7E-5,0
STARLINK-31290,2024-041M,2026-06-15T02:20:02.020704,15.27582898,.00017592,43.0021,106.3283,270.2163,89.8487,0,U,59085,999,12947,.80215551E-4,.1946E-4,0
