STARLINK-31206          
1 59028U 24038F   26165.64279386 -.00000632  00000+0 -13423-4 0  9995
2 59028  43.0066 134.4767 0001441 262.3227  97.7461 15.27573906130352
STARLINK-31224          
1 59029U 24038G   26165.80889860  .00000158  00000+0  15247-4 0  9995
2 59029  42.9942 198.3483 0001160  34.8412 325.2515 15.27571435129615
STARLINK-31186          
1 59030U 24038H   26166.36409950 -.00000051  00000+0  76632-5 0  9996
2 59030  42.9994 195.6220 0001342 272.2661  87.8037 15.27576421129697
STARLINK-31211          
1 59031U 24038J   26165.80374584 -.00000229  00000+0  12047-5 0  9996
2 59031  43.0002 198.3026 0000961 289.4785  70.5963 15.27574526129508
STARLINK-30862          
1 59032U 24038K   26165.78593054 -.00000376  00000+0 -41146-5 0  9995
2 59032  43.0063 187.8292 0001665 265.5411  94.5250 15.27574815129626
STARLINK-31210          
1 59033U 24038L   26166.35302102  .00000434  00000+0  25298-4 0  9994
2 59033  43.0006 192.0944 0001315 276.8710  83.1992 15.27579489129792
STARLINK-31231          
1 59034U 24038M   26166.34916969 -.00000277  00000+0 -53834-6 0  9992
2 59034  43.0034 192.0676 0000397 265.3271  94.7535 15.27575864129626
STARLINK-31207          
1 59035U 24038N   26165.36451617 -.00000279  00000+0 -62225-6 0  9994
2 59035  42.9988 197.5743 0001142 260.9976  99.0747 15.27574181129646
STARLINK-31217          
1 59036U 24038P   26166.52891797  .00002547  00000+0  10202-3 0  9994
2 59036  43.0131  96.6722 0002677 271.4359  88.6186 15.27595394130902
STARLINK-31208          
1 59037U 24038Q   26166.38593742 -.00002211  00000+0 -70840-4 0  9993
2 59037  42.9991 195.7576 0001138 266.1077  93.9644 15.27580238129752
STARLINK-31235          
1 59038U 24038R   26166.34274240  .00000035  00000+0  10811-4 0  9991
2 59038  43.0038 192.0168 0001861 275.5128  84.5511 15.27577150129734
STARLINK-31220          
1 59039U 24038S   26166.34482728 -.00000512  00000+0 -90705-5 0  9997
2 59039  43.0016 195.4788 0001565 269.8102  90.2570 15.27572901129698
STARLINK-31225          
1 59040U 24038T   26165.80551265 -.00000030  00000+0  84255-5 0  9999
2 59040  43.0019 194.8294 0001445 267.5312  92.5374 15.27566438129542
STARLINK-31240          
1 59041U 24038U   26166.36715498  .00000471  00000+0  26651-4 0  9995
2 59041  43.0005 192.2039 0001166 265.6985  94.3733 15.27576846129736
STARLINK-31202          
1 59042U 24038V   26166.36035256  .00000974  00000+0  43471-4 0  9990
2 59042  43.0069 191.3060 0003525 139.2831 220.8285 15.28751265129805
STARLINK-31234          
1 59043U 24038W   26166.36073516 -.00000120  00000+0  51570-5 0  9996
2 59043  43.0045 192.1508 0001019 269.7313  90.3422 15.27572898129621
STARLINK-31153          
1 59044U 24038X   26166.33888797 -.00000240  00000+0  81746-6 0  9991
2 59044  43.0069 191.9907 0002232 280.4798  79.5802 15.27573968129623
STARLINK-31241          
1 59045U 24038Y   26166.36458508 -.00000047  00000+0  78215-5 0  9999
2 59045  42.9993 192.1782 0001136 274.2447  85.8274 15.27576973129796
STARLINK-31205          
1 59046U 24038Z   26166.35687980 -.00000557  00000+0 -10700-4 0  9998
2 59046  43.0047 192.1188 0001387 267.8738  92.1955 15.27572708129731
STARLINK-31265          
1 59074U 24041A   26165.60689689  .00000466  00000+0  26470-4 0  9996
2 59074  43.0088 123.3754 0001617 265.1346  94.9322 15.27581802129096
STARLINK-31276          
1 59075U 24041B   26166.16325701 -.00000091  00000+0  62115-5 0  9993
2 59075  43.0027 119.8140 0001650 278.9561  81.1104 15.27605611129234
STARLINK-31259          
1 59076U 24041C   26166.16711507 -.00000618  00000+0 -12948-4 0  9991
2 59076  43.0026 119.8486 0000897 250.0918 109.9837 15.27575947128134
STARLINK-31281          
1 59077U 24041D   26166.17097180  .00000327  00000+0  21406-4 0  9991
2 59077  43.0032 119.8722 0000473 291.5592  68.5209 15.27573156129238
STARLINK-31274          
1 59078U 24041E   26165.61204624 -.00000277  00000+0 -54754-6 0  9993
2 59078  43.0047 123.4111 0001719 268.7807  91.2848 15.27573278129098
STARLINK-31257          
1 59079U 24041F   26164.61452191  .00002217  00000+0  90063-4 0  9992
2 59079  43.0033 128.8316 0003546 268.6554  91.3892 15.27590519128948
STARLINK-31292          
1 59081U 24041H   26166.17482439  .00001150  00000+0  51309-4 0  9991
2 59081  43.0020 119.9009 0000627 274.9957  85.0823 15.27572466129172
STARLINK-31286          
1 59082U 24041J   26164.60943148 -.00003557  00000+0 -11988-3 0  9990
2 59082  43.0078 128.7985 0001416 275.2005  84.8685 15.27551547129026
STARLINK-31252          
1 59083U 24041K   26166.36870481  .00000469  00000+0  26578-4 0  9994
2 59083  43.0026  35.8784 0001456 267.8254  92.2431 15.27580293130217
STARLINK-31261          
1 59084U 24041L   26166.14157147  .00000700  00000+0  34977-4 0  9998
2 59084  43.0145 120.5112 0002076 282.9295  77.1325 15.27578389129225
STARLINK-31290          
1 59085U 24041M   26166.09724561  .00001946  00000+0  80216-4 0  9993
2 59085  43.0021 106.3283 0001759 270.2163  89.8487 15.27582898129477
